ONEWEB-0715             
1 55176U 23004AN  23059.58334491 -.00959776  00000+0 -32838+0 0  9996
2 55176  86.9292 265.3119 0012340  54.6871 182.8751 14.39486805  1304
ONEWEB-0715             
1 55176U 23004AN  23059.75001157 -.00990662  00000+0 -34188+0 0  9994
2 55176  86.9320 265.2511 0012236  52.9640 327.6337 14.39159780  7449
ONEWEB-0715             
1 55176U 23004AN  23059.91667824 -.00908502  00000+0 -31420+0 0  9999
2 55176  86.9347 265.1912 0012499  52.8546 110.5873 14.38778511  1308
ONEWEB-0715             
1 55176U 23004AN  23060.25001157 -.00995330  00000+0 -35055+0 0  9992
2 55176  86.9404 265.0726 0012540  51.6561  36.8297 14.38154805  7518
ONEWEB-0715             
1 55176U 23004AN  23060.91667824 -.00912111  00000+0 -32845+0 0  9994
2 55176  86.9515 264.8339 0012287  50.1205 246.0806 14.36766161  1309
ONEWEB-0715             
1 55176U 23004AN  23060.91667824 -.00912111  00000+0 -32845+0 0  9994
2 55176  86.9515 264.8339 0012287  50.1205 246.0806 14.36766161  7619
ONEWEB-0715             
1 55176U 23004AN  23061.83334491 -.00948578  00000+0 -35506+0 0  9990
2 55176  86.9665 264.5092 0012273  46.9802 304.5356 14.34932790  1300
ONEWEB-0715             
1 55176U 23004AN  23062.58334491 -.00965348  00000+0 -37199+0 0  9997
2 55176  86.9781 264.2464 0012239  46.7759 214.5476 14.33512993  1301
ONEWEB-0715             
1 55176U 23004AN  23062.58334491 -.00965348  00000+0 -37199+0 0  9997
2 55176  86.9781 264.2464 0012239  46.7759 214.5476 14.33512993  7846
ONEWEB-0715             
1 55176U 23004AN  23062.91667824 -.00907749  00000+0 -35337+0 0  9996
2 55176  86.9834 264.1288 0012496  45.4876 134.5544 14.32802481  1304
